$$SOE
2460735.500000000, A.D. 2025-Mar-01 00:00:00.0000, -5.391790964011425E+08, 4.627203427228763E+08, 5.659391858452317E+07,
2460742.500000000, A.D. 2025-Mar-08 00:00:00.0000, -5.438083582952065E+08, 4.570835024450819E+08, 5.551073543021423E+07,
2460749.500000000, A.D. 2025-Mar-15 00:00:00.0000, -5.483645632622775E+08, 4.513852845035689E+08, 5.442009539343244E+07,
2460756.500000000, A.D. 2025-Mar-22 00:00:00.0000, -5.528470274399129E+08, 4.456264012362228E+08, 5.332213800368780E+07,
2460763.500000000, A.D. 2025-Mar-29 00:00:00.0000, -5.572550715980400E+08, 4.398075699262795E+08, 5.221700364174139E+07,
2460770.500000000, A.D. 2025-Apr-05 00:00:00.0000, -5.615880202550011E+08, 4.339295119577185E+08, 5.110483341101345E+07,
2460777.500000000, A.D. 2025-Apr-12 00:00:00.0000, -5.658452010279986E+08, 4.279929529607929E+08, 4.998576911178833E+07,
2460784.500000000, A.D. 2025-Apr-19 00:00:00.0000, -5.700259444053075E+08, 4.219986230670352E+08, 4.885995326308879E+07,
2460791.500000000, A.D. 2025-Apr-26 00:00:00.0000, -5.741295836685126E+08, 4.159472570712514E+08, 4.772752913043898E+07,
2460798.500000000, A.D. 2025-May-03 00:00:00.0000, -5.781554548509669E+08, 4.098395945201005E+08, 4.658864075041792E+07,
2460805.500000000, A.D. 2025-May-10 00:00:00.0000, -5.821028967037961E+08, 4.036763797362515E+08, 4.544343294989467E+07,
2460812.500000000, A.D. 2025-May-17 00:00:00.0000, -5.859712506326579E+08, 3.974583617373646E+08, 4.429205135307524E+07,
2460819.500000000, A.D. 2025-May-24 00:00:00.0000, -5.897598604312968E+08, 3.911862939956558E+08, 4.313464235585931E+07,
2460826.500000000, A.D. 2025-May-31 00:00:00.0000, -5.934680713940847E+08, 3.848609343491817E+08, 4.197135305454198E+07,
2460833.500000000, A.D. 2025-Jun-07 00:00:00.0000, -5.970952292085615E+08, 3.784830462697480E+08, 4.080233126407081E+07,
2460840.500000000, A.D. 2025-Jun-14 00:00:00.0000, -6.006406809928411E+08, 3.720534008208666E+08, 3.962772578824522E+07,
2460847.500000000, A.D. 2025-Jun-21 00:00:00.0000, -6.041037772611772E+08, 3.655727760348749E+08, 3.844768656294012E+07,
2460854.500000000, A.D. 2025-Jun-28 00:00:00.0000, -6.074838716891096E+08, 3.590419554739704E+08, 3.726236452967660E+07,
2460861.500000000, A.D. 2025-Jul-05 00:00:00.0000, -6.107803201949162E+08, 3.524617281314549E+08, 3.607191155492811E+07,
2460868.500000000, A.D. 2025-Jul-12 00:00:00.0000, -6.139924805287366E+08, 3.458328888680326E+08, 3.487648043864800E+07,
2460875.500000000, A.D. 2025-Jul-19 00:00:00.0000, -6.171197121799608E+08, 3.391562388084103E+08, 3.367622494770667E+07,
2460882.500000000, A.D. 2025-Jul-26 00:00:00.0000, -6.201613763929858E+08, 3.324325856418467E+08, 3.247129985045086E+07,
2460889.500000000, A.D. 2025-Aug-02 00:00:00.0000, -6.231168362259829E+08, 3.256627438484696E+08, 3.126186094826591E+07,
2460896.500000000, A.D. 2025-Aug-09 00:00:00.0000, -6.259854566293243E+08, 3.188475348369521E+08, 3.004806510094336E+07,
2460903.500000000, A.D. 2025-Aug-16 00:00:00.0000, -6.287666044668093E+08, 3.119877869305884E+08, 2.883007023380598E+07,
2460910.500000000, A.D. 2025-Aug-23 00:00:00.0000, -6.314596481871322E+08, 3.050843352185267E+08, 2.760803530130960E+07,
2460917.500000000, A.D. 2025-Aug-30 00:00:00.0000, -6.340639568167465E+08, 2.981380219863872E+08, 2.638212023553959E+07,
2460924.500000000, A.D. 2025-Sep-06 00:00:00.0000, -6.365788996925038E+08, 2.911496987266545E+08, 2.515248609166569E+07,
2460931.500000000, A.D. 2025-Sep-13 00:00:00.0000, -6.390038486053114E+08, 2.841202272463254E+08, 2.391929534093788E+07,
2460938.500000000, A.D. 2025-Sep-20 00:00:00.0000, -6.413381790816482E+08, 2.770504782278835E+08, 2.268271187686835E+07,
2460945.500000000, A.D. 2025-Sep-27 00:00:00.0000, -6.435812697440851E+08, 2.699413303552703E+08, 2.144290089201762E+07,
2460952.500000000, A.D. 2025-Oct-04 00:00:00.0000, -6.457325017676526E+08, 2.627936705440848E+08, 2.020002885458589E+07,
2460959.500000000, A.D. 2025-Oct-11 00:00:00.0000, -6.477912588059882E+08, 2.556083943333534E+08, 1.895426354210731E+07,
2460966.500000000, A.D. 2025-Oct-18 00:00:00.0000, -6.497569271035938E+08, 2.483864061648930E+08, 1.770577408383401E+07,
2460973.500000000, A.D. 2025-Oct-25 00:00:00.0000, -6.516288956545116E+08, 2.411286195616095E+08, 1.645473099987628E+07,
2460980.500000000, A.D. 2025-Nov-01 00:00:00.0000, -6.534065563678739E+08, 2.338359572204565E+08, 1.520130623465136E+07,
2460987.500000000, A.D. 2025-Nov-08 00:00:00.0000, -6.550893042058588E+08, 2.265093509888583E+08, 1.394567317875831E+07,
2460994.500000000, A.D. 2025-Nov-15 00:00:00.0000, -6.566765371464739E+08, 2.191497416663162E+08, 1.268800666074455E+07,
2461001.500000000, A.D. 2025-Nov-22 00:00:00.0000, -6.581676555688655E+08, 2.117580788516688E+08, 1.142848288960823E+07,
2461008.500000000, A.D. 2025-Nov-29 00:00:00.0000, -6.595620612147896E+08, 2.043353219714083E+08, 1.016727945462425E+07,
2461015.500000000, A.D. 2025-Dec-06 00:00:00.0000, -6.608591580042512E+08, 1.968824423534846E+08, 8.904575580044419E+06,
2461022.500000000, A.D. 2025-Dec-13 00:00:00.0000, -6.620583542722880E+08, 1.894004229769777E+08, 7.640552319271296E+06,
2461029.500000000, A.D. 2025-Dec-20 00:00:00.0000, -6.631590629336715E+08, 1.818902569215114E+08, 6.375392451613717E+06,
2461036.500000000, A.D. 2025-Dec-27 00:00:00.0000, -6.641607006490479E+08, 1.743529471079864E+08, 5.109280391823858E+06,
2461043.500000000, A.D. 2026-Jan-03 00:00:00.0000, -6.650626874519666E+08, 1.667895067153953E+08, 3.842402195910297E+06,
2461050.500000000, A.D. 2026-Jan-10 00:00:00.0000, -6.658644467274144E+08, 1.592009595955139E+08, 2.574945597684480E+06,
2461057.500000000, A.D. 2026-Jan-17 00:00:00.0000, -6.665654053095255E+08, 1.515883405947808E+08, 1.307100047280081E+06,
2461064.500000000, A.D. 2026-Jan-24 00:00:00.0000, -6.671649936206850E+08, 1.439526958069354E+08, 3.905674643569440E+04,
2461071.500000000, A.D. 2026-Jan-31 00:00:00.0000, -6.676626458287299E+08, 1.362950827499084E+08, -1.228991322120845E+06,
2461078.500000000, A.D. 2026-Feb-07 00:00:00.0000, -6.680577999609138E+08, 1.286165704105266E+08, -2.496849381412230E+06,
2461085.500000000, A.D. 2026-Feb-14 00:00:00.0000, -6.683498977217380E+08, 1.209182391426089E+08, -3.764320887440406E+06,
2461092.500000000, A.D. 2026-Feb-21 00:00:00.0000, -6.685383836271855E+08, 1.132011809962395E+08, -5.031207585195310E+06,
2461099.500000000, A.D. 2026-Feb-28 00:00:00.0000, -6.686227045403106E+08, 1.054665016321537E+08, -6.297309399604369E+06,
2461106.500000000, A.D. 2026-Mar-07 00:00:00.0000, -6.686023116671807E+08, 9.771532187148382E+07, -7.562424131935604E+06,
2461113.500000000, A.D. 2026-Mar-14 00:00:00.0000, -6.684766622379246E+08, 8.994877654845217E+07, -8.826347406828310E+06,
2461120.500000000, A.D. 2026-Mar-21 00:00:00.0000, -6.682452190898253E+08, 8.216801356416903E+07, -1.008887279651492E+07,
2461127.500000000, A.D. 2026-Mar-28 00:00:00.0000, -6.679074501616933E+08, 7.437419416985281E+07, -1.134979185373056E+07,
2461134.500000000, A.D. 2026-Apr-04 00:00:00.0000, -6.674628285036625E+08, 6.656849351344202E+07, -1.260889407673624E+07,
2461141.500000000, A.D. 2026-Apr-11 00:00:00.0000, -6.669108325290291E+08, 5.875210108946859E+07, -1.386596686085291E+07,
2461148.500000000, A.D. 2026-Apr-18 00:00:00.0000, -6.662509463492244E+08, 5.092622108539420E+07, -1.512079545149301E+07,
2461155.500000000, A.D. 2026-Apr-25 00:00:00.0000, -6.654826601462816E+08, 4.309207263899864E+07, -1.637316290151667E+07,
2461162.500000000, A.D. 2026-May-02 00:00:00.0000, -6.646054705522224E+08, 3.525088997708481E+07, -1.762285003799342E+07,
2461169.500000000, A.D. 2026-May-09 00:00:00.0000, -6.636188809108356E+08, 2.740392236919132E+07, -1.886963545508613E+07,
2461176.500000000, A.D. 2026-May-16 00:00:00.0000, -6.625224010439451E+08, 1.955243403461128E+07, -2.011329555633593E+07,
2461183.500000000, A.D. 2026-May-23 00:00:00.0000, -6.613155464703649E+08, 1.169770502504462E+07, -2.135360456751999E+07,
2461190.500000000, A.D. 2026-May-30 00:00:00.0000, -6.599978391561446E+08, 3.841033402292874E+06, -2.259033430339053E+07,
2461197.500000000, A.D. 2026-Jun-06 00:00:00.0000, -6.585688101139878E+08, -4.016264562644332E+06, -2.382325392688524E+07,
2461204.500000000, A.D. 2026-Jun-13 00:00:00.0000, -6.570280001862236E+08, -1.187285596984565E+07, -2.505213002095843E+07,
2461211.500000000, A.D. 2026-Jun-20 00:00:00.0000, -6.553749595119427E+08, -1.972739172391059E+07, -2.627672668809180E+07,
2461218.500000000, A.D. 2026-Jun-27 00:00:00.0000, -6.536092473763683E+08, -2.757850616092781E+07, -2.749680554971337E+07,
2461225.500000000, A.D. 2026-Jul-04 00:00:00.0000, -6.517304324428792E+08, -3.542481664450190E+07, -2.871212570916840E+07,
2461232.500000000, A.D. 2026-Jul-11 00:00:00.0000, -6.497380931143810E+08, -4.326492326325572E+07, -2.992244371266910E+07,
2461239.500000000, A.D. 2026-Jul-18 00:00:00.0000, -6.476318179320478E+08, -5.109740860444795E+07, -3.112751351498367E+07,
2461246.500000000, A.D. 2026-Jul-25 00:00:00.0000, -6.454112059877555E+08, -5.892083760124238E+07, -3.232708645221868E+07,
2461253.500000000, A.D. 2026-Aug-01 00:00:00.0000, -6.430758673028221E+08, -6.673375750190715E+07, -3.352091123033552E+07,
2461260.500000000, A.D. 2026-Aug-08 00:00:00.0000, -6.406254229587841E+08, -7.453469799692532E+07, -3.470873395227581E+07,
2461267.500000000, A.D. 2026-Aug-15 00:00:00.0000, -6.380595045656067E+08, -8.232217105370824E+07, -3.589029818512033E+07,
2461274.500000000, A.D. 2026-Aug-22 00:00:00.0000, -6.353777538286946E+08, -9.009466923781116E+07, -3.706534489778032E+07,
2461281.500000000, A.D. 2026-Aug-29 00:00:00.0000, -6.325798245042734E+08, -9.785066389382178E+07, -3.823361217158097E+07,
2461288.500000000, A.D. 2026-Sep-05 00:00:00.0000, -6.296653846104939E+08, -1.055886060544324E+08, -3.939483511397892E+07,
2461295.500000000, A.D. 2026-Sep-12 00:00:00.0000, -6.266341164399346E+08, -1.133069275820490E+08, -4.054874599667326E+07,
2461302.500000000, A.D. 2026-Sep-19 00:00:00.0000, -6.234857162472956E+08, -1.210040409991003E+08, -4.169507432004680E+07,
$$EOE